0 FENGYUN 1C DEB
1 31813U 99025CHB 13280.93843596  .00000837  00000-0  25474-3 0  4776
2 31813 099.4203 181.4765 0164852 004.7983 355.4948 14.37684356340411
0 FENGYUN 1C DEB
1 31813U 99025CHB 13282.95665363  .00000853  00000-0  25963-3 0  4786
2 31813 099.4202 183.6902 0164530 359.1269 000.9629 14.37688600340700
0 FENGYUN 1C DEB
1 31813U 99025CHB 13283.51340204  .00001122  00000-0  32052-3 0  4791
2 31813 099.4217 184.3046 0162476 357.8932 002.2037 14.37693537340783
0 FENGYUN 1C DEB
1 31813U 99025CHB 13287.54982653  .00000950  00000-0  28807-3 0  4801
2 31813 099.4236 188.7290 0162551 346.2690 013.4550 14.37700085341366
0 FENGYUN 1C DEB
1 31813U 99025CHB 13289.49842849  .00000988  00000-0  29868-3 0  4819
2 31813 099.4243 190.8702 0163030 340.5873 018.9534 14.37705454341647
0 FENGYUN 1C DEB
1 31813U 99025CHB 13289.56801412  .00001069  00000-0  32293-3 0  4826
2 31813 099.4269 190.9475 0161344 340.6202 018.9679 14.37708324341656
0 FENGYUN 1C DEB
1 31813U 99025CHB 13290.54229391  .00001667  00000-0  47598-3 0  4846
2 31813 099.4223 192.0139 0162266 337.5172 021.9443 14.37719077341796
0 FENGYUN 1C DEB
1 31813U 99025CHB 13291.51659520  .00001106  00000-0  33358-3 0  4831
2 31813 099.4273 193.0830 0160852 334.8669 024.4922 14.37714020341939
0 FENGYUN 1C DEB
1 31813U 99025CHB 13293.53477903  .00001143  00000-0  34350-3 0  4843
2 31813 099.4264 195.2958 0162123 329.0862 030.0960 14.37719809342226
0 FENGYUN 1C DEB
1 31813U 99025CHB 13294.50907167  .00001176  00000-0  35309-3 0  4853
2 31813 099.4273 196.3650 0161722 326.2888 032.8457 14.37723347342366
